{"fetched_at":"2026-03-29T02:12:04Z","count":15717,"tles":[{"name":"SHIYAN-24C 01","line1":"1 58650U 23206A   26087.73115775  .00002958  00000+0  25517-3 0  9992","line2":"2 58650  97.3989  59.6369 0005158  96.2408 263.9403 14.97982508123261","category":"Other"}]}